[{"OBJECT_NAME":"KSM1-C","OBJECT_ID":"2020-081B","EPOCH":"2026-03-09T23:03:28.272960","MEAN_MOTION":15.249265,"ECCENTRICITY":8.294e-5,"INCLINATION":36.8937,"RA_OF_ASC_NODE":310.7323,"ARG_OF_PERICENTER":75.7221,"MEAN_ANOMALY":284.362,"EPHEMERIS_TYPE":0,"CLASSIFICATION_TYPE":"U","NORAD_CAT_ID":46906,"ELEMENT_SET_NO":999,"REV_AT_EPOCH":29400,"BSTAR":0.00049583858,"MEAN_MOTION_DOT":0.0001256,"MEAN_MOTION_DDOT":0},{"OBJECT_NAME":"STARLINK-6203","OBJECT_ID":"2023-083Z","EPOCH":"2026-03-09T22:00:01.999584","MEAN_MOTION":15.16916357,"ECCENTRICITY":0.00019394,"INCLINATION":43.0003,"RA_OF_ASC_NODE":79.6472,"ARG_OF_PERICENTER":280.7342,"MEAN_ANOMALY":127.9387,"EPHEMERIS_TYPE":0,"CLASSIFICATION_TYPE":"U","NORAD_CAT_ID":56899,"ELEMENT_SET_NO":999,"REV_AT_EPOCH":572,"BSTAR":0.063222474,"MEAN_MOTION_DOT":0.01382693,"MEAN_MOTION_DDOT":0}]
